{"spkid": "50177225", "covariance": {"labels": ["e", "q", "tp", "node", "peri", "i", "A2"], "elements": [{"sigma": 9.13446934875957e-08, "name": "e", "units": null, "title": "eccentricity", "value": ".2890846690473994", "label": "e"}, {"units": "au", "title": "perihelion distance", "value": ".581559233771922", "sigma": 8.23220327721666e-08, "name": "q", "label": "q"}, {"label": "tp", "title": "time of perihelion passage", "value": "2458043.317209694725", "units": "TDB", "sigma": 2.40533275122795e-05, "name": "tp"}, {"label": "node", "name": "om", "sigma": 0.00163839708278423, "title": "longitude of the ascending node", "value": "291.1306207550944", "units": "deg"}, {"name": "w", "sigma": 0.00163834959876463, "units": "deg", "value": "36.467745849355", "title": "argument of perihelion", "label": "peri"}, {"label": "i", "units": "deg", "title": "inclination", "value": ".02099794916230434", "name": "i", "sigma": 2.60272297939762e-07}], "data": [["8.343853028342817E-15", "-7.51845530148281E-15", "2.112598956864355E-12", "-1.293043384106131E-12", "-6.315770580492947E-13", "-8.700084110832794E-16", "-3.701599912367125E-21"], ["-7.51845530148281E-15", "6.77691707974167E-15", "-1.910809979092266E-12", "1.180434003946727E-12", "5.585547614603304E-13", "8.20288154600303E-16", "3.345821821589751E-21"], ["2.112598956864355E-12", "-1.910809979092266E-12", "5.785625644129802E-10", "-5.018080744894168E-10", "3.082954651898322E-12", "-3.099497138209757E-13", "-9.730783043138728E-19"], ["-1.293043384106131E-12", "1.180434003946727E-12", "-5.018080744894168E-10", "2.684345000875869E-6", "-2.684037446299347E-6", "4.147060197287E-10", "6.766573916276687E-19"], ["-6.315770580492947E-13", "5.585547614603304E-13", "3.082954651898322E-12", "-2.684037446299347E-6", "2.684189407772228E-6", "-4.143784789392374E-10", "2.002765447766125E-19"], ["-8.700084110832794E-16", "8.20288154600303E-16", "-3.099497138209757E-13", "4.147060197287E-10", "-4.143784789392374E-10", "6.774166907484449E-14", "5.671975859118709E-22"], ["-3.701599912367125E-21", "3.345821821589751E-21", "-9.730783043138728E-19", "6.766573916276687E-19", "2.002765447766125E-19", "5.671975859118709E-22", "1.691545254811357E-27"]], "epoch": "2457928.5"}, "elements": [{"label": "e", "sigma": "7.3908E-8", "name": "e", "units": null, "value": ".288877607468105", "title": "eccentricity"}, {"label": "a", "units": "au", "title": "semi-major axis", "value": ".8192516800386311", "name": "a", "sigma": "5.2441E-8"}, {"name": "q", "sigma": "9.7201E-8", "title": "perihelion distance", "value": ".5825882147948459", "units": "au", "label": "q"}, {"name": "i", "sigma": "3.7243E-6", "title": "inclination; angle with respect to x-y ecliptic plane", "value": ".0548629044584906", "units": "deg", "label": "i"}, {"sigma": ".0011869", "name": "om", "title": "longitude of the ascending node", "value": "258.1426126090025", "units": "deg", "label": "node"}, {"title": "argument of perihelion", "value": "69.24615823895199", "units": "deg", "sigma": ".0011693", "name": "w", "label": "peri"}, {"name": "ma", "sigma": ".0002465", "units": "deg", "title": "mean anomaly", "value": "239.5607554487353", "label": "M"}, {"label": "tp", "sigma": ".00019415", "name": "tp", "value": "2461291.112885384790", "title": "time of perihelion passage", "units": "TDB"}, {"sigma": "2.6006E-5", "name": "per", "units": "d", "title": "sidereal orbital period", "value": "270.8472546474625", "label": "period"}, {"title": "mean motion", "value": "1.329162447921356", "units": "deg/d", "name": "n", "sigma": "1.2762E-7", "label": "n"}, {"label": "Q", "sigma": "6.759E-8", "name": "ad", "value": "1.055915145282416", "title": "aphelion distance", "units": "au"}], "epoch": "2461200.5"}